[{"OBJECT_NAME":"OBJECT D","OBJECT_ID":"2025-234D","EPOCH":"2026-03-09T21:45:39.162528","MEAN_MOTION":15.22662806,"ECCENTRICITY":0.00034878,"INCLINATION":97.4338,"RA_OF_ASC_NODE":138.0864,"ARG_OF_PERICENTER":166.6055,"MEAN_ANOMALY":193.5275,"EPHEMERIS_TYPE":0,"CLASSIFICATION_TYPE":"U","NORAD_CAT_ID":66056,"ELEMENT_SET_NO":999,"REV_AT_EPOCH":2155,"BSTAR":0.00081390028,"MEAN_MOTION_DOT":0.00018914,"MEAN_MOTION_DDOT":0},{"OBJECT_NAME":"OBJECT D","OBJECT_ID":"2025-197D","EPOCH":"2026-03-09T23:30:56.303712","MEAN_MOTION":15.25287442,"ECCENTRICITY":0.00144425,"INCLINATION":97.4091,"RA_OF_ASC_NODE":257.3677,"ARG_OF_PERICENTER":3.398,"MEAN_ANOMALY":356.7353,"EPHEMERIS_TYPE":0,"CLASSIFICATION_TYPE":"U","NORAD_CAT_ID":65491,"ELEMENT_SET_NO":999,"REV_AT_EPOCH":2822,"BSTAR":0.00037200129,"MEAN_MOTION_DOT":9.321e-5,"MEAN_MOTION_DDOT":0}]
